DLR-TUBSAT              
1 25757U 99029B   23067.07610406  .00000535  00000+0  14506-3 0  9998
2 25757  98.5223  17.6675 0015112  38.3361 321.8905 14.51603180259624
CXO                     
1 25867U 99040B   23067.48244204  .00001102  00000+0  00000+0 0  9998
2 25867  38.8771 209.3042 9022657 252.4083   0.4903  0.37818766 12790
ABS-6                   
1 25924U 99053A   23066.85167936 -.00000119  00000+0  00000+0 0  9990
2 25924   0.0379 264.8585 0001767  75.3966 290.6625  1.00272198 85843
NAVSTAR 46 (USA 145)    
1 25933U 99055A   23065.71492230 -.00000089  00000+0  00000+0 0  9990
2 25933  52.3249 347.3912 0134140 137.9030 221.3430  2.00569719171535
UFO 10 (USA 146)        
1 25967U 99063A   23066.19424326 -.00000183  00000+0  00000+0 0  9995
2 25967   9.0370  32.5217 0002129 326.7035 212.4398  1.00269470 85337
ORBCOMM FM30            
1 25980U 99065A   23066.70860931  .00003318  00000+0  12317-2 0  9994
2 25980  45.0324  57.7251 0005253 192.5712 167.5004 14.33822675214846
ORBCOMM FM31            
1 25981U 99065B   23067.09922911  .00003099  00000+0  11532-2 0  9999
2 25981  45.0239  49.9614 0003745 235.0033 125.0463 14.33849260215423
ORBCOMM FM32            
1 25982U 99065C   23066.69988005  .00003072  00000+0  11662-2 0  9996
2 25982  45.0165  62.4850 0006142 221.1374 138.9010 14.32842278215075
ORBCOMM FM33            
1 25983U 99065D   23066.24721208  .00002583  00000+0  92580-3 0  9993
2 25983  45.0311 345.1825 0007637 210.3794 286.2745 14.36152613216184
ORBCOMM FM36            
1 25984U 99065E   23066.66813946  .00004010  00000+0  14749-2 0  9998
2 25984  45.0376  61.3180 0000993  34.7175 325.3737 14.33935210214774
ORBCOMM FM35            
1 25985U 99065F   23066.68855654  .00003013  00000+0  11229-2 0  9995
2 25985  45.0402  62.8664 0004022 236.9888 123.0573 14.33833645215188
XMM-NEWTON              
1 25989U 99066A   23068.75424709  .00000183  00000+0  00000+0 0  9990
2 25989  69.3850 300.0796 5678591  83.6436 359.9216  0.50133420 17014
DMSP 5D-3 F15 (USA 147) 
1 25991U 99067A   23066.91946515  .00000587  00000+0  31690-3 0  9995
2 25991  99.0703  68.2386 0010462 156.9593 214.9170 14.16673462201074
TERRA                   
1 25994U 99068A   23067.18046156  .00001453  00000+0  31859-3 0  9991
2 25994  98.1049 138.0272 0002358  57.6165 327.8665 14.59083252235054
