[
  {
    "OBJECT_NAME": "DLR-TUBSAT",
    "OBJECT_ID": "1999-029B",
    "EPOCH": "2023-03-08T01:49:35.390784",
    "MEAN_MOTION": 14.5160318,
    "ECCENTRICITY": 0.0015112,
    "INCLINATION": 98.5223,
    "RA_OF_ASC_NODE": 17.6675,
    "ARG_OF_PERICENTER": 38.3361,
    "MEAN_ANOMALY": 321.8905,
    "EPHEMERIS_TYPE": 0,
    "CLASSIFICATION_TYPE": "U",
    "NORAD_CAT_ID": 25757,
    "ELEMENT_SET_NO": 999,
    "REV_AT_EPOCH": 25962,
    "BSTAR": 0.00014506,
    "MEAN_MOTION_DOT": 5.35e-6,
    "MEAN_MOTION_DDOT": 0
  },
  {
    "OBJECT_NAME": "CXO",
    "OBJECT_ID": "1999-040B",
    "EPOCH": "2023-03-08T11:34:42.992256",
    "MEAN_MOTION": 0.37818766,
    "ECCENTRICITY": 0.9022657,
    "INCLINATION": 38.8771,
    "RA_OF_ASC_NODE": 209.3042,
    "ARG_OF_PERICENTER": 252.4083,
    "MEAN_ANOMALY": 0.4903,
    "EPHEMERIS_TYPE": 0,
    "CLASSIFICATION_TYPE": "U",
    "NORAD_CAT_ID": 25867,
    "ELEMENT_SET_NO": 999,
    "REV_AT_EPOCH": 1279,
    "BSTAR": 0,
    "MEAN_MOTION_DOT": 1.102e-5,
    "MEAN_MOTION_DDOT": 0
  },
  {
    "OBJECT_NAME": "ABS-6",
    "OBJECT_ID": "1999-053A",
    "EPOCH": "2023-03-07T20:26:25.096704",
    "MEAN_MOTION": 1.00272198,
    "ECCENTRICITY": 0.0001767,
    "INCLINATION": 0.0379,
    "RA_OF_ASC_NODE": 264.8585,
    "ARG_OF_PERICENTER": 75.3966,
    "MEAN_ANOMALY": 290.6625,
    "EPHEMERIS_TYPE": 0,
    "CLASSIFICATION_TYPE": "U",
    "NORAD_CAT_ID": 25924,
    "ELEMENT_SET_NO": 999,
    "REV_AT_EPOCH": 8584,
    "BSTAR": 0,
    "MEAN_MOTION_DOT": -1.19e-6,
    "MEAN_MOTION_DDOT": 0
  },
  {
    "OBJECT_NAME": "NAVSTAR 46 (USA 145)",
    "OBJECT_ID": "1999-055A",
    "EPOCH": "2023-03-06T17:09:29.286720",
    "MEAN_MOTION": 2.00569719,
    "ECCENTRICITY": 0.013414,
    "INCLINATION": 52.3249,
    "RA_OF_ASC_NODE": 347.3912,
    "ARG_OF_PERICENTER": 137.903,
    "MEAN_ANOMALY": 221.343,
    "EPHEMERIS_TYPE": 0,
    "CLASSIFICATION_TYPE": "U",
    "NORAD_CAT_ID": 25933,
    "ELEMENT_SET_NO": 999,
    "REV_AT_EPOCH": 17153,
    "BSTAR": 0,
    "MEAN_MOTION_DOT": -8.9e-7,
    "MEAN_MOTION_DDOT": 0
  },
  {
    "OBJECT_NAME": "UFO 10 (USA 146)",
    "OBJECT_ID": "1999-063A",
    "EPOCH": "2023-03-07T04:39:42.617664",
    "MEAN_MOTION": 1.0026947,
    "ECCENTRICITY": 0.0002129,
    "INCLINATION": 9.037,
    "RA_OF_ASC_NODE": 32.5217,
    "ARG_OF_PERICENTER": 326.7035,
    "MEAN_ANOMALY": 212.4398,
    "EPHEMERIS_TYPE": 0,
    "CLASSIFICATION_TYPE": "U",
    "NORAD_CAT_ID": 25967,
    "ELEMENT_SET_NO": 999,
    "REV_AT_EPOCH": 8533,
    "BSTAR": 0,
    "MEAN_MOTION_DOT": -1.83e-6,
    "MEAN_MOTION_DDOT": 0
  },
  {
    "OBJECT_NAME": "ORBCOMM FM30",
    "OBJECT_ID": "1999-065A",
    "EPOCH": "2023-03-07T17:00:23.844384",
    "MEAN_MOTION": 14.33822675,
    "ECCENTRICITY": 0.0005253,
    "INCLINATION": 45.0324,
    "RA_OF_ASC_NODE": 57.7251,
    "ARG_OF_PERICENTER": 192.5712,
    "MEAN_ANOMALY": 167.5004,
    "EPHEMERIS_TYPE": 0,
    "CLASSIFICATION_TYPE": "U",
    "NORAD_CAT_ID": 25980,
    "ELEMENT_SET_NO": 999,
    "REV_AT_EPOCH": 21484,
    "BSTAR": 0.0012317,
    "MEAN_MOTION_DOT": 3.318e-5,
    "MEAN_MOTION_DDOT": 0
  },
  {
    "OBJECT_NAME": "ORBCOMM FM31",
    "OBJECT_ID": "1999-065B",
    "EPOCH": "2023-03-08T02:22:53.395104",
    "MEAN_MOTION": 14.3384926,
    "ECCENTRICITY": 0.0003745,
    "INCLINATION": 45.0239,
    "RA_OF_ASC_NODE": 49.9614,
    "ARG_OF_PERICENTER": 235.0033,
    "MEAN_ANOMALY": 125.0463,
    "EPHEMERIS_TYPE": 0,
    "CLASSIFICATION_TYPE": "U",
    "NORAD_CAT_ID": 25981,
    "ELEMENT_SET_NO": 999,
    "REV_AT_EPOCH": 21542,
    "BSTAR": 0.0011532,
    "MEAN_MOTION_DOT": 3.099e-5,
    "MEAN_MOTION_DDOT": 0
  },
  {
    "OBJECT_NAME": "ORBCOMM FM32",
    "OBJECT_ID": "1999-065C",
    "EPOCH": "2023-03-07T16:47:49.636320",
    "MEAN_MOTION": 14.32842278,
    "ECCENTRICITY": 0.0006142,
    "INCLINATION": 45.0165,
    "RA_OF_ASC_NODE": 62.485,
    "ARG_OF_PERICENTER": 221.1374,
    "MEAN_ANOMALY": 138.901,
    "EPHEMERIS_TYPE": 0,
    "CLASSIFICATION_TYPE": "U",
    "NORAD_CAT_ID": 25982,
    "ELEMENT_SET_NO": 999,
    "REV_AT_EPOCH": 21507,
    "BSTAR": 0.0011662,
    "MEAN_MOTION_DOT": 3.072e-5,
    "MEAN_MOTION_DDOT": 0
  },
  {
    "OBJECT_NAME": "ORBCOMM FM33",
    "OBJECT_ID": "1999-065D",
    "EPOCH": "2023-03-07T05:55:59.123712",
    "MEAN_MOTION": 14.36152613,
    "ECCENTRICITY": 0.0007637,
    "INCLINATION": 45.0311,
    "RA_OF_ASC_NODE": 345.1825,
    "ARG_OF_PERICENTER": 210.3794,
    "MEAN_ANOMALY": 286.2745,
    "EPHEMERIS_TYPE": 0,
    "CLASSIFICATION_TYPE": "U",
    "NORAD_CAT_ID": 25983,
    "ELEMENT_SET_NO": 999,
    "REV_AT_EPOCH": 21618,
    "BSTAR": 0.0009258,
    "MEAN_MOTION_DOT": 2.583e-5,
    "MEAN_MOTION_DDOT": 0
  },
  {
    "OBJECT_NAME": "ORBCOMM FM36",
    "OBJECT_ID": "1999-065E",
    "EPOCH": "2023-03-07T16:02:07.249344",
    "MEAN_MOTION": 14.3393521,
    "ECCENTRICITY": 9.93e-5,
    "INCLINATION": 45.0376,
    "RA_OF_ASC_NODE": 61.318,
    "ARG_OF_PERICENTER": 34.7175,
    "MEAN_ANOMALY": 325.3737,
    "EPHEMERIS_TYPE": 0,
    "CLASSIFICATION_TYPE": "U",
    "NORAD_CAT_ID": 25984,
    "ELEMENT_SET_NO": 999,
    "REV_AT_EPOCH": 21477,
    "BSTAR": 0.0014749,
    "MEAN_MOTION_DOT": 4.01e-5,
    "MEAN_MOTION_DDOT": 0
  },
  {
    "OBJECT_NAME": "ORBCOMM FM35",
    "OBJECT_ID": "1999-065F",
    "EPOCH": "2023-03-07T16:31:31.285056",
    "MEAN_MOTION": 14.33833645,
    "ECCENTRICITY": 0.0004022,
    "INCLINATION": 45.0402,
    "RA_OF_ASC_NODE": 62.8664,
    "ARG_OF_PERICENTER": 236.9888,
    "MEAN_ANOMALY": 123.0573,
    "EPHEMERIS_TYPE": 0,
    "CLASSIFICATION_TYPE": "U",
    "NORAD_CAT_ID": 25985,
    "ELEMENT_SET_NO": 999,
    "REV_AT_EPOCH": 21518,
    "BSTAR": 0.0011229,
    "MEAN_MOTION_DOT": 3.013e-5,
    "MEAN_MOTION_DDOT": 0
  },
  {
    "OBJECT_NAME": "XMM-NEWTON",
    "OBJECT_ID": "1999-066A",
    "EPOCH": "2023-03-09T18:06:06.948576",
    "MEAN_MOTION": 0.5013342,
    "ECCENTRICITY": 0.5678591,
    "INCLINATION": 69.385,
    "RA_OF_ASC_NODE": 300.0796,
    "ARG_OF_PERICENTER": 83.6436,
    "MEAN_ANOMALY": 359.9216,
    "EPHEMERIS_TYPE": 0,
    "CLASSIFICATION_TYPE": "U",
    "NORAD_CAT_ID": 25989,
    "ELEMENT_SET_NO": 999,
    "REV_AT_EPOCH": 1701,
    "BSTAR": 0,
    "MEAN_MOTION_DOT": 1.83e-6,
    "MEAN_MOTION_DDOT": 0
  },
  {
    "OBJECT_NAME": "DMSP 5D-3 F15 (USA 147)",
    "OBJECT_ID": "1999-067A",
    "EPOCH": "2023-03-07T22:04:01.788960",
    "MEAN_MOTION": 14.16673462,
    "ECCENTRICITY": 0.0010462,
    "INCLINATION": 99.0703,
    "RA_OF_ASC_NODE": 68.2386,
    "ARG_OF_PERICENTER": 156.9593,
    "MEAN_ANOMALY": 214.917,
    "EPHEMERIS_TYPE": 0,
    "CLASSIFICATION_TYPE": "U",
    "NORAD_CAT_ID": 25991,
    "ELEMENT_SET_NO": 999,
    "REV_AT_EPOCH": 20107,
    "BSTAR": 0.0003169,
    "MEAN_MOTION_DOT": 5.87e-6,
    "MEAN_MOTION_DDOT": 0
  },
  {
    "OBJECT_NAME": "TERRA",
    "OBJECT_ID": "1999-068A",
    "EPOCH": "2023-03-08T04:19:51.878784",
    "MEAN_MOTION": 14.59083252,
    "ECCENTRICITY": 0.0002358,
    "INCLINATION": 98.1049,
    "RA_OF_ASC_NODE": 138.0272,
    "ARG_OF_PERICENTER": 57.6165,
    "MEAN_ANOMALY": 327.8665,
    "EPHEMERIS_TYPE": 0,
    "CLASSIFICATION_TYPE": "U",
    "NORAD_CAT_ID": 25994,
    "ELEMENT_SET_NO": 999,
    "REV_AT_EPOCH": 23505,
    "BSTAR": 0.00031859,
    "MEAN_MOTION_DOT": 1.453e-5,
    "MEAN_MOTION_DDOT": 0
  }
]
